VCC C                   
1 44430U 98067QQ  20099.04563723  .00013110  00000-0  18119-3 0  9994
2 44430  51.6401 326.7468 0003009  93.8755 266.2581 15.57499803 42376
VCC B                   
1 44431U 98067QR  20099.01939731  .00008341  00000-0  12440-3 0  9999
2 44431  51.6407 328.0686 0003414  85.2079 274.9302 15.56001779 43473
ATL-1                   
1 44830U 19084G   20099.07287887  .00035361  00000-0  26334-3 0  9997
2 44830  96.9863 327.8389 0033765 144.9004 215.4495 15.71908742 19372
SMOG-P                  
1 44832U 19084J   20099.11192483  .00042383  00000-0  30757-3 0  9997
2 44832  96.9869 327.9450 0032955 143.4945 216.8576 15.72522058 19387
DUCHIFAT-3              
1 44854U 19089C   20099.48827398  .00000328  00000-0  32965-4 0  9993
2 44854  36.9668 151.8183 0008327 224.2865 135.7227 14.99015670 17794
ORBITAL FACTORY 2 (OF-2)
1 45113U 19071C   20099.09026143  .00001828  00000-0  67870-4 0  9998
2 45113  51.6453 343.3881 0013331 161.3133 198.8340 15.33079419 10331
